STARLINK-11290 [DTC]    
1 61000U 24158L   26068.87572155  .00003280  00000+0  31913-4 0  9992
2 61000  53.1589 280.3570 0001466 150.4820 209.6281 15.69719788 87680
ISS OBJECT XU           
1 66908U 98067XU  26068.19895314  .00161175  00000+0  13351-2 0  9996
2 66908  51.6248  68.1144 0004893  76.6698 283.4844 15.69191892 15108
