[{"OBJECT_NAME":"STARLINK-11290 [DTC]","OBJECT_ID":"2024-158L","EPOCH":"2026-03-09T21:01:02.341920","MEAN_MOTION":15.69719788,"ECCENTRICITY":0.00014663,"INCLINATION":53.1589,"RA_OF_ASC_NODE":280.357,"ARG_OF_PERICENTER":150.482,"MEAN_ANOMALY":209.6281,"EPHEMERIS_TYPE":0,"CLASSIFICATION_TYPE":"U","NORAD_CAT_ID":61000,"ELEMENT_SET_NO":999,"REV_AT_EPOCH":8768,"BSTAR":3.1913027e-5,"MEAN_MOTION_DOT":3.28e-5,"MEAN_MOTION_DDOT":0},{"OBJECT_NAME":"ISS OBJECT XU","OBJECT_ID":"1998-067XU","EPOCH":"2026-03-09T04:46:29.551296","MEAN_MOTION":15.69191892,"ECCENTRICITY":0.00048935,"INCLINATION":51.6248,"RA_OF_ASC_NODE":68.1144,"ARG_OF_PERICENTER":76.6698,"MEAN_ANOMALY":283.4844,"EPHEMERIS_TYPE":0,"CLASSIFICATION_TYPE":"U","NORAD_CAT_ID":66908,"ELEMENT_SET_NO":999,"REV_AT_EPOCH":1510,"BSTAR":0.0013351438,"MEAN_MOTION_DOT":0.00161175,"MEAN_MOTION_DDOT":0}]
